[{"OBJECT_NAME":"LEMUR-2-CALLUM-K-J","OBJECT_ID":"2026-004B","EPOCH":"2026-03-09T22:32:55.398048","MEAN_MOTION":14.87314253,"ECCENTRICITY":0.00103405,"INCLINATION":97.8064,"RA_OF_ASC_NODE":69.1156,"ARG_OF_PERICENTER":95.8442,"MEAN_ANOMALY":264.3953,"EPHEMERIS_TYPE":0,"CLASSIFICATION_TYPE":"U","NORAD_CAT_ID":67364,"ELEMENT_SET_NO":999,"REV_AT_EPOCH":853,"BSTAR":0.00054257986,"MEAN_MOTION_DOT":4.848e-5,"MEAN_MOTION_DDOT":0},{"OBJECT_NAME":"CZ-6A DEB","OBJECT_ID":"2024-140RL","EPOCH":"2026-03-09T13:43:45.340320","MEAN_MOTION":14.77602932,"ECCENTRICITY":0.0075046,"INCLINATION":88.9641,"RA_OF_ASC_NODE":278.8737,"ARG_OF_PERICENTER":209.4241,"MEAN_ANOMALY":150.2747,"EPHEMERIS_TYPE":0,"CLASSIFICATION_TYPE":"U","NORAD_CAT_ID":61166,"ELEMENT_SET_NO":999,"REV_AT_EPOCH":8204,"BSTAR":0.0024056,"MEAN_MOTION_DOT":0.00018061,"MEAN_MOTION_DDOT":0}]
